{
 "generated_at": "2026-07-12T07:29:19Z",
 "sources": [
  {
   "name": "CelesTrak",
   "url": "https://celestrak.org/NORAD/elements/",
   "license": "frei verfügbar; Attribution. Ursprünglich USSPACECOM/Space-Track."
  },
  {
   "name": "GCAT (J. McDowell, planet4589.org)",
   "url": "https://planet4589.org/space/gcat/",
   "license": "CC-BY 4.0"
  }
 ],
 "satellites": [
  {
   "norad": 32376,
   "name": "COSMO-SKYMED 2",
   "intl": "2007-059A",
   "group": "resource",
   "gcat": {
    "class": "D",
    "category": "IMG-R",
    "owner": "ASI",
    "state": "I"
   },
   "omm": {
    "OBJECT_NAME": "COSMO-SKYMED 2",
    "OBJECT_ID": "2007-059A",
    "EPOCH": "2026-07-11T22:29:51.209664",
    "MEAN_MOTION": 14.82148982,
    "ECCENTRICITY": 0.00014368,
    "INCLINATION": 97.8892,
    "RA_OF_ASC_NODE": 16.1771,
    "ARG_OF_PERICENTER": 93.321,
    "MEAN_ANOMALY": 266.8167,
    "EPHEMERIS_TYPE": 0,
    "CLASSIFICATION_TYPE": "U",
    "NORAD_CAT_ID": 32376,
    "ELEMENT_SET_NO": 999,
    "REV_AT_EPOCH": 567,
    "BSTAR": 0.000031534152,
    "MEAN_MOTION_DOT": 0.00000199,
    "MEAN_MOTION_DDOT": 0
   }
  },
  {
   "norad": 33412,
   "name": "COSMO-SKYMED 3",
   "intl": "2008-054A",
   "group": "resource",
   "gcat": {
    "class": null,
    "category": null,
    "owner": null,
    "state": null
   },
   "omm": {
    "OBJECT_NAME": "COSMO-SKYMED 3",
    "OBJECT_ID": "2008-054A",
    "EPOCH": "2026-07-11T21:49:30.457920",
    "MEAN_MOTION": 15.07100844,
    "ECCENTRICITY": 0.00155549,
    "INCLINATION": 97.826,
    "RA_OF_ASC_NODE": 51.8901,
    "ARG_OF_PERICENTER": 176.8132,
    "MEAN_ANOMALY": 183.3197,
    "EPHEMERIS_TYPE": 0,
    "CLASSIFICATION_TYPE": "U",
    "NORAD_CAT_ID": 33412,
    "ELEMENT_SET_NO": 999,
    "REV_AT_EPOCH": 96066,
    "BSTAR": 0.0001251389,
    "MEAN_MOTION_DOT": 0.00001817,
    "MEAN_MOTION_DDOT": 0
   }
  },
  {
   "norad": 37216,
   "name": "COSMO-SKYMED 4",
   "intl": "2010-060A",
   "group": "resource",
   "gcat": {
    "class": "D",
    "category": "IMG-R",
    "owner": "ASI",
    "state": "I"
   },
   "omm": {
    "OBJECT_NAME": "COSMO-SKYMED 4",
    "OBJECT_ID": "2010-060A",
    "EPOCH": "2026-07-11T22:48:04.944672",
    "MEAN_MOTION": 14.82150193,
    "ECCENTRICITY": 0.0001539,
    "INCLINATION": 97.8895,
    "RA_OF_ASC_NODE": 16.192,
    "ARG_OF_PERICENTER": 84.8642,
    "MEAN_ANOMALY": 275.2746,
    "EPHEMERIS_TYPE": 0,
    "CLASSIFICATION_TYPE": "U",
    "NORAD_CAT_ID": 37216,
    "ELEMENT_SET_NO": 999,
    "REV_AT_EPOCH": 84823,
    "BSTAR": 0.00012791133,
    "MEAN_MOTION_DOT": 0.00000966,
    "MEAN_MOTION_DDOT": 0
   }
  },
  {
   "norad": 44873,
   "name": "CSG-1",
   "intl": "2019-092A",
   "group": "resource",
   "gcat": {
    "class": "D",
    "category": "IMG-R",
    "owner": "MDDI/ASI",
    "state": "I"
   },
   "omm": {
    "OBJECT_NAME": "CSG-1",
    "OBJECT_ID": "2019-092A",
    "EPOCH": "2026-07-12T00:43:35.198400",
    "MEAN_MOTION": 14.82155271,
    "ECCENTRICITY": 0.0001474,
    "INCLINATION": 97.8894,
    "RA_OF_ASC_NODE": 16.2736,
    "ARG_OF_PERICENTER": 90.0648,
    "MEAN_ANOMALY": 270.0734,
    "EPHEMERIS_TYPE": 0,
    "CLASSIFICATION_TYPE": "U",
    "NORAD_CAT_ID": 44873,
    "ELEMENT_SET_NO": 999,
    "REV_AT_EPOCH": 35515,
    "BSTAR": 0.000034622,
    "MEAN_MOTION_DOT": 0.00000223,
    "MEAN_MOTION_DDOT": 0
   }
  },
  {
   "norad": 51444,
   "name": "CSG-2",
   "intl": "2022-008A",
   "group": "resource",
   "gcat": {
    "class": "D",
    "category": "IMG-R",
    "owner": "MDDI/ASI",
    "state": "I"
   },
   "omm": {
    "OBJECT_NAME": "CSG-2",
    "OBJECT_ID": "2022-008A",
    "EPOCH": "2026-07-11T22:17:42.209664",
    "MEAN_MOTION": 14.8214924,
    "ECCENTRICITY": 0.000152,
    "INCLINATION": 97.8893,
    "RA_OF_ASC_NODE": 16.1686,
    "ARG_OF_PERICENTER": 85.8798,
    "MEAN_ANOMALY": 274.2589,
    "EPHEMERIS_TYPE": 0,
    "CLASSIFICATION_TYPE": "U",
    "NORAD_CAT_ID": 51444,
    "ELEMENT_SET_NO": 999,
    "REV_AT_EPOCH": 24025,
    "BSTAR": 0.000071375656,
    "MEAN_MOTION_DOT": 0.00000516,
    "MEAN_MOTION_DDOT": 0
   }
  },
  {
   "norad": 67304,
   "name": "CSG-3",
   "intl": "2026-001A",
   "group": "resource",
   "gcat": {
    "class": "D",
    "category": "IMG-R",
    "owner": "MDDI/ASI",
    "state": "I"
   },
   "omm": {
    "OBJECT_NAME": "CSG-3",
    "OBJECT_ID": "2026-001A",
    "EPOCH": "2026-07-11T23:24:35.570880",
    "MEAN_MOTION": 14.82150701,
    "ECCENTRICITY": 0.00015004,
    "INCLINATION": 97.8893,
    "RA_OF_ASC_NODE": 16.2188,
    "ARG_OF_PERICENTER": 93.2995,
    "MEAN_ANOMALY": 266.8389,
    "EPHEMERIS_TYPE": 0,
    "CLASSIFICATION_TYPE": "U",
    "NORAD_CAT_ID": 67304,
    "ELEMENT_SET_NO": 999,
    "REV_AT_EPOCH": 2813,
    "BSTAR": 0.000026380391,
    "MEAN_MOTION_DOT": 0.00000158,
    "MEAN_MOTION_DDOT": 0
   }
  },
  {
   "norad": 41887,
   "name": "CYGFM01",
   "intl": "2016-078D",
   "group": "weather",
   "gcat": {
    "class": "C",
    "category": "EOSCI",
    "owner": "LARCN/SWRIB",
    "state": "US"
   },
   "omm": {
    "OBJECT_NAME": "CYGFM01",
    "OBJECT_ID": "2016-078D",
    "EPOCH": "2026-07-11T21:40:24.987072",
    "MEAN_MOTION": 15.58462573,
    "ECCENTRICITY": 0.00065782,
    "INCLINATION": 34.9395,
    "RA_OF_ASC_NODE": 97.6416,
    "ARG_OF_PERICENTER": 357.8092,
    "MEAN_ANOMALY": 2.2603,
    "EPHEMERIS_TYPE": 0,
    "CLASSIFICATION_TYPE": "U",
    "NORAD_CAT_ID": 41887,
    "ELEMENT_SET_NO": 999,
    "REV_AT_EPOCH": 53256,
    "BSTAR": 0.00021423196,
    "MEAN_MOTION_DOT": 0.00016889,
    "MEAN_MOTION_DDOT": 0
   }
  },
  {
   "norad": 41886,
   "name": "CYGFM02",
   "intl": "2016-078C",
   "group": "weather",
   "gcat": {
    "class": "C",
    "category": "EOSCI",
    "owner": "LARCN/SWRIB",
    "state": "US"
   },
   "omm": {
    "OBJECT_NAME": "CYGFM02",
    "OBJECT_ID": "2016-078C",
    "EPOCH": "2026-07-11T23:01:39.357984",
    "MEAN_MOTION": 15.66185448,
    "ECCENTRICITY": 0.00053337,
    "INCLINATION": 34.9407,
    "RA_OF_ASC_NODE": 56.6012,
    "ARG_OF_PERICENTER": 51.8258,
    "MEAN_ANOMALY": 308.2949,
    "EPHEMERIS_TYPE": 0,
    "CLASSIFICATION_TYPE": "U",
    "NORAD_CAT_ID": 41886,
    "ELEMENT_SET_NO": 999,
    "REV_AT_EPOCH": 53305,
    "BSTAR": 0.00024624823,
    "MEAN_MOTION_DOT": 0.00026306,
    "MEAN_MOTION_DDOT": 0
   }
  },
  {
   "norad": 41891,
   "name": "CYGFM03",
   "intl": "2016-078H",
   "group": "weather",
   "gcat": {
    "class": "C",
    "category": "EOSCI",
    "owner": "LARCN/SWRIB",
    "state": "US"
   },
   "omm": {
    "OBJECT_NAME": "CYGFM03",
    "OBJECT_ID": "2016-078H",
    "EPOCH": "2026-07-11T22:32:37.859712",
    "MEAN_MOTION": 15.6142039,
    "ECCENTRICITY": 0.00050686,
    "INCLINATION": 34.9403,
    "RA_OF_ASC_NODE": 66.5565,
    "ARG_OF_PERICENTER": 31.7377,
    "MEAN_ANOMALY": 328.3653,
    "EPHEMERIS_TYPE": 0,
    "CLASSIFICATION_TYPE": "U",
    "NORAD_CAT_ID": 41891,
    "ELEMENT_SET_NO": 999,
    "REV_AT_EPOCH": 53284,
    "BSTAR": 0.00022361704,
    "MEAN_MOTION_DOT": 0.00019752,
    "MEAN_MOTION_DDOT": 0
   }
  },
  {
   "norad": 41885,
   "name": "CYGFM04",
   "intl": "2016-078B",
   "group": "weather",
   "gcat": {
    "class": "C",
    "category": "EOSCI",
    "owner": "LARCN/SWRIB",
    "state": "US"
   },
   "omm": {
    "OBJECT_NAME": "CYGFM04",
    "OBJECT_ID": "2016-078B",
    "EPOCH": "2026-07-11T22:39:53.035776",
    "MEAN_MOTION": 15.62935372,
    "ECCENTRICITY": 0.00046111,
    "INCLINATION": 34.9325,
    "RA_OF_ASC_NODE": 62.9216,
    "ARG_OF_PERICENTER": 47.5229,
    "MEAN_ANOMALY": 312.5886,
    "EPHEMERIS_TYPE": 0,
    "CLASSIFICATION_TYPE": "U",
    "NORAD_CAT_ID": 41885,
    "ELEMENT_SET_NO": 999,
    "REV_AT_EPOCH": 53287,
    "BSTAR": 0.00023089523,
    "MEAN_MOTION_DOT": 0.00021646,
    "MEAN_MOTION_DDOT": 0
   }
  }
 ]
}
